NORAD_CAT_ID,OBJECT_NAME,OBJECT_TYPE,EPOCH,MEAN_MOTION,ECCENTRICITY,INCLINATION,RA_OF_ASC_NODE,ARG_OF_PERICENTER,MEAN_ANOMALY,BSTAR,MEAN_MOTION_DOT,MEAN_MOTION_DDOT,TLE_LINE0,TLE_LINE1,TLE_LINE2,SEMIMAJOR_AXIS,PERIOD,APOGEE,PERIGEE,DECAYED
55641.0,STARLINK-5065,PAYLOAD,2023-07-30 00:58:11,14.9833692,0.0003129,69.9986,68.9554,270.6707,89.4093,0.00011971,1.336e-05,0.0,0 STARLINK-5065,1 55641U 23021P   23211.04041048  .00001336  00000-0  11971-3 0  9994,2 55641  69.9986  68.9554 0003129 270.6707  89.4093 14.98336920 25646,6950.171,96.107,574.211,569.862,0.0
55641.0,STARLINK-5065,PAYLOAD,2023-07-30 18:35:40,14.98329083,0.0002951,69.999,67.1038,271.7719,88.3102,-6.0525e-05,-8.15e-06,0.0,0 STARLINK-5065,1 55641U 23021P   23211.77477954 -.00000815  00000-0 -60525-4 0  9996,2 55641  69.9990  67.1038 0002951 271.7719  88.3102 14.98329083 25759,6950.196,96.107,574.112,570.01,0.0
55641.0,STARLINK-5065,PAYLOAD,2023-07-31 18:37:41,14.98332427,0.0003059,69.9985,64.5787,270.9674,89.1134,-7.8938e-05,-1.035e-05,0.0,0 STARLINK-5065,1 55641U 23021P   23212.77617637 -.00001035  00000-0 -78938-4 0  9993,2 55641  69.9985  64.5787 0003059 270.9674  89.1134 14.98332427 25903,6950.185,96.107,574.176,569.924,0.0
55641.0,STARLINK-5065,PAYLOAD,2023-08-01 18:39:42,14.98327153,0.0002979,69.9988,62.0537,270.0699,90.0118,2.5027e-05,2.06e-06,0.0,0 STARLINK-5065,1 55641U 23021P   23213.77757618  .00000206  00000-0  25027-4 0  9996,2 55641  69.9988  62.0537 0002979 270.0699  90.0118 14.98327153 26050,6950.202,96.107,574.137,569.996,0.0
55641.0,STARLINK-5065,PAYLOAD,2023-08-02 18:41:43,14.98329633,0.0003137,69.9986,59.5286,270.7185,89.3614,2.545e-05,2.11e-06,0.0,0 STARLINK-5065,1 55641U 23021P   23214.77897449  .00000211  00000-0  25450-4 0  9990,2 55641  69.9986  59.5286 0003137 270.7185  89.3614 14.98329633 26208,6950.194,96.107,574.239,569.879,0.0
55641.0,STARLINK-5065,PAYLOAD,2023-08-03 23:32:08,14.98331176,0.0003138,69.9989,56.4987,269.0984,90.9816,1.2204e-05,5.3e-07,0.0,0 STARLINK-5065,1 55641U 23021P   23215.98065255  .00000053  00000-0  12204-4 0  9993,2 55641  69.9989  56.4987 0003138 269.0984  90.9816 14.98331176 26380,6950.189,96.107,574.235,569.873,0.0
55641.0,STARLINK-5065,PAYLOAD,2023-08-04 18:45:45,14.98326649,0.0003078,69.9992,54.4779,268.5878,91.4928,-5.2982e-05,-7.25e-06,0.0,0 STARLINK-5065,1 55641U 23021P   23216.78177786 -.00000725  00000-0 -52982-4 0  9990,2 55641  69.9992  54.4779 0003078 268.5878  91.4928 14.98326649 26503,6950.203,96.107,574.208,569.929,0.0
55641.0,STARLINK-5065,PAYLOAD,2023-08-05 18:47:45,14.98332919,0.0003049,69.9996,51.954,267.4098,92.6712,4.7186e-05,4.7e-06,0.0,0 STARLINK-5065,1 55641U 23021P   23217.78317070  .00000470  00000-0  47186-4 0  9998,2 55641  69.9996  51.9540 0003049 267.4098  92.6712 14.98332919 26652,6950.184,96.107,574.168,569.93,0.0
55641.0,STARLINK-5065,PAYLOAD,2023-08-06 06:00:42,14.98328232,0.0002859,70.0001,50.7727,279.4773,80.6063,-1.5173e-05,-2.74e-06,0.0,0 STARLINK-5065,1 55641U 23021P   23218.25049522 -.00000274  00000-0 -15173-4 0  9990,2 55641  70.0001  50.7727 0002859 279.4773  80.6063 14.98328232 26724,6950.198,96.107,574.05,570.076,0.0
55641.0,STARLINK-5065,PAYLOAD,2023-08-06 18:49:48,14.98319215,0.0003147,69.9994,49.429,271.3074,88.7724,-7.7539e-05,-1.018e-05,0.0,0 STARLINK-5065,1 55641U 23021P   23218.78458430 -.00001018  00000-0 -77539-4 0  9991,2 55641  69.9994  49.4290 0003147 271.3074  88.7724 14.98319215 26801,6950.226,96.108,574.278,569.904,0.0
55641.0,STARLINK-5065,PAYLOAD,2023-08-07 18:51:48,14.98330969,0.0003194,69.9994,46.9034,271.7352,88.3441,-3.6561e-05,-5.29e-06,0.0,0 STARLINK-5065,1 55641U 23021P   23219.78597872 -.00000529  00000-0 -36561-4 0  9992,2 55641  69.9994  46.9034 0003194 271.7352  88.3441 14.98330969 26951,6950.19,96.107,574.275,569.835,0.0
55641.0,STARLINK-5065,PAYLOAD,2023-08-08 23:42:12,14.98335819,0.0003301,69.9994,43.8728,273.3703,86.7078,0.00017462,1.991e-05,0.0,0 STARLINK-5065,1 55641U 23021P   23220.98764821  .00001991  00000-0  17462-3 0  9996,2 55641  69.9994  43.8728 0003301 273.3703  86.7078 14.98335819 27133,6950.175,96.107,574.334,569.746,0.0
55641.0,STARLINK-5065,PAYLOAD,2023-08-09 06:06:45,14.98331311,0.0003194,69.9991,43.2004,276.2299,83.8496,7.3309e-05,7.82e-06,0.0,0 STARLINK-5065,1 55641U 23021P   23221.25469363  .00000782  00000-0  73309-4 0  9990,2 55641  69.9991  43.2004 0003194 276.2299  83.8496 14.98331311 27172,6950.189,96.107,574.274,569.834,0.0
55641.0,STARLINK-5065,PAYLOAD,2023-08-10 15:45:34,14.98335407,0.0003227,69.9998,39.6644,272.1179,87.9611,-5.8251e-05,-7.88e-06,0.0,0 STARLINK-5065,1 55641U 23021P   23222.65665128 -.00000788  00000-0 -58251-4 0  9999,2 55641  69.9998  39.6644 0003227 272.1179  87.9611 14.98335407 27384,6950.176,96.107,574.284,569.798,0.0
55641.0,STARLINK-5065,PAYLOAD,2023-08-11 17:23:43,14.98331088,0.0003262,70.0,36.9713,270.5681,89.5104,1.0345e-05,3e-07,0.0,0 STARLINK-5065,1 55641U 23021P   23223.72480932  .00000030  00000-0  10345-4 0  9996,2 55641  70.0000  36.9713 0003262 270.5681  89.5104 14.98331088 27541,6950.19,96.107,574.322,569.787,0.0
55641.0,STARLINK-5065,PAYLOAD,2023-08-12 17:25:44,14.98330687,0.0003285,70.0,34.4465,268.3369,91.7413,-3.5676e-06,-1.36e-06,0.0,0 STARLINK-5065,1 55641U 23021P   23224.72620939 -.00000136  00000-0 -35676-5 0  9994,2 55641  70.0000  34.4465 0003285 268.3369  91.7413 14.98330687 27699,6950.191,96.107,574.339,569.773,0.0
55641.0,STARLINK-5065,PAYLOAD,2023-08-13 19:03:53,14.98326749,0.0003229,70.0004,31.7532,269.2251,90.8538,-2.3626e-05,-3.75e-06,0.0,0 STARLINK-5065,1 55641U 23021P   23225.79437313 -.00000375  00000-0 -23626-4 0  9990,2 55641  70.0004  31.7532 0003229 269.2251  90.8538 14.98326749 27856,6950.203,96.107,574.312,569.824,0.0
55641.0,STARLINK-5065,PAYLOAD,2023-08-14 17:29:50,14.98289462,0.000309,70.0002,29.3964,271.9751,88.1055,-0.00043403,-5.262e-05,0.0,0 STARLINK-5065,1 55641U 23021P   23226.72905368 -.00005262  00000-0 -43403-3 0  9998,2 55641  70.0002  29.3964 0003090 271.9751  88.1055 14.98289462 27996,6950.318,96.11,574.331,570.036,0.0
55641.0,STARLINK-5065,PAYLOAD,2023-08-15 04:42:46,14.98301783,0.0001652,70.0003,28.2171,263.1696,96.9275,-0.00016573,-2.068e-05,0.0,0 STARLINK-5065,1 55641U 23021P   23227.19636652 -.00002068  00000-0 -16573-3 0  9996,2 55641  70.0003  28.2171 0001652 263.1696  96.9275 14.98301783 28069,6950.28,96.109,573.293,570.997,0.0
55641.0,STARLINK-5065,PAYLOAD,2023-08-15 17:31:48,14.98330614,0.0003132,70.0003,26.8711,270.117,89.9631,8.7966e-05,9.57e-06,0.0,0 STARLINK-5065,1 55641U 23021P   23227.73041990  .00000957  00000-0  87966-4 0  9999,2 55641  70.0003  26.8711 0003132 270.1170  89.9631 14.98330614 28145,6950.191,96.107,574.233,569.879,0.0
55641.0,STARLINK-5065,PAYLOAD,2023-08-16 11:09:16,14.98337676,0.0002999,69.9998,25.0198,269.9952,90.0863,0.00018444,2.109e-05,0.0,0 STARLINK-5065,1 55641U 23021P   23228.46477184  .00002109  00000-0  18444-3 0  9993,2 55641  69.9998  25.0198 0002999 269.9952  90.0863 14.98337676 28256,6950.169,96.107,574.119,569.95,0.0
55641.0,STARLINK-5065,PAYLOAD,2023-08-16 17:33:48,14.98319777,0.0003155,69.9998,24.3465,271.3823,88.6974,0.00050103,5.889e-05,0.0,0 STARLINK-5065,1 55641U 23021P   23228.73181352  .00005889  00000-0  50103-3 0  9998,2 55641  69.9998  24.3465 0003155 271.3823  88.6974 14.98319777 28296,6950.225,96.108,574.282,569.897,0.0
55641.0,STARLINK-5065,PAYLOAD,2023-08-16 22:22:12,14.98328201,0.0003154,70.0002,23.8415,272.8319,87.2479,0.00055536,6.539e-05,0.0,0 STARLINK-5065,1 55641U 23021P   23228.93208649  .00006539  00000-0  55536-3 0  9997,2 55641  70.0002  23.8415 0003154 272.8319  87.2479 14.98328201 28320,6950.198,96.107,574.256,569.871,0.0
55641.0,STARLINK-5065,PAYLOAD,2023-08-17 11:11:17,14.98336456,0.0002998,70.0013,22.4952,271.9288,88.1527,-1.9502e-05,-3.26e-06,0.0,0 STARLINK-5065,1 55641U 23021P   23229.46617418 -.00000326  00000-0 -19502-4 0  9998,2 55641  70.0013  22.4952 0002998 271.9288  88.1527 14.98336456 28407,6950.173,96.107,574.122,569.954,0.0
55641.0,STARLINK-5065,PAYLOAD,2023-08-18 09:37:11,14.9832548,0.0002539,70.0005,20.1406,272.1764,87.9104,-0.00027605,-3.385e-05,0.0,0 STARLINK-5065,1 55641U 23021P   23230.40082377 -.00003385  00000-0 -27605-3 0  9994,2 55641  70.0005  20.1406 0002539 272.1764  87.9104 14.98325480 28548,6950.207,96.107,573.837,570.307,0.0
55641.0,STARLINK-5065,PAYLOAD,2023-08-18 16:01:44,14.98316072,0.000326,70.0008,19.4647,267.2283,92.8503,-0.00042273,-5.132e-05,0.0,0 STARLINK-5065,1 55641U 23021P   23230.66787423 -.00005132  00000-0 -42273-3 0  9996,2 55641  70.0008  19.4647 0003260 267.2283  92.8503 14.98316072 28581,6950.236,96.108,574.367,569.835,0.0
55641.0,STARLINK-5065,PAYLOAD,2023-08-19 09:39:12,14.98317755,0.0003258,70.0007,17.614,273.247,86.8316,-0.00011063,-1.412e-05,0.0,0 STARLINK-5065,1 55641U 23021P   23231.40223000 -.00001412  00000-0 -11063-3 0  9995,2 55641  70.0007  17.6140 0003258 273.2470  86.8316 14.98317755 28696,6950.231,96.108,574.36,569.831,0.0
55641.0,STARLINK-5065,PAYLOAD,2023-08-19 11:15:20,14.98325896,0.0002874,69.9988,17.4437,276.3278,83.7554,-4.7726e-05,-6.62e-06,0.0,0 STARLINK-5065,1 55641U 23021P   23231.46898441 -.00000662  00000-0 -47726-4 0  9990,2 55641  69.9988  17.4437 0002874 276.3278  83.7554 14.98325896 28708,6950.206,96.107,574.068,570.073,0.0
55641.0,STARLINK-5065,PAYLOAD,2023-08-20 12:53:28,14.98326933,0.0003123,70.0004,14.7514,273.6956,86.3846,0.00033788,3.94e-05,0.0,0 STARLINK-5065,1 55641U 23021P   23232.53713407  .00003940  00000-0  33788-3 0  9999,2 55641  70.0004  14.7514 0003123 273.6956  86.3846 14.98326933 28860,6950.202,96.107,574.238,569.897,0.0
55641.0,STARLINK-5065,PAYLOAD,2023-08-20 17:41:54,14.98302941,0.0003152,70.001,14.2476,264.3003,95.7796,5.6354e-05,5.79e-06,0.0,0 STARLINK-5065,1 55641U 23021P   23232.73743328  .00000579  00000-0  56354-4 0  9996,2 55641  70.0010  14.2476 0003152 264.3003  95.7796 14.98302941 28895,6950.277,96.109,574.332,569.951,0.0
